NP,,Nombre,Estado,municipio,Colonia,Dirección,latitud,longitud
1,MIGUEL,Parque Dr. Luis Guevara Camacho,Oaxaca,Huajuapan de León,Del Carmen,Jerusalén,17.795464,-97.786795
2,MIGUEL,"Colonia Centro, San Andres Dinicuiti",Oaxaca,San Andrés Dinicuiti,Centro,Miguel Hidalgo,17.688798,-97.726693
3,MIGUEL,Santiago Cacaloxtepec,Oaxaca,Santiago Cacaloxtepec,Centro,Reforma,17.721161,97.742058
4,MIGUEL,Santa María Camotlán,Oaxaca,Santa María Camotlán,Centro,Antonio de León,17.897685,-97.692843
5,MIGUEL,Cerca de Parque Municipal,Oaxaca,Villa de Tamazulapan del Progreso,Centro,Avenida principal,17.672062,-97.573317
6,MIGUEL,San Jose Ayuquila,Oaxaca,San Jose Ayuquila,Centro,Hidalgo,17.943719,-97.969061
7,MIGUEL,Santa Catarina,Oaxaca,Santa Catarina,Centro,Benito Juárez,17.955576,-98.011498
8,MIGUEL,Col. Guadalupe,Oaxaca,Huajuapan de León,Guadalupe,Guadalupe Victoria,17.808887,-97.7836
9,MIGUEL,Parque Fovissste,Oaxaca,Huajuapan de León,Fovissste,C. 15,17.82688,-97.781314
10,MIGUEL,Santiago Chilixtlahuaca ,Oaxaca,Huajuapan de León,Barrio de Guadalupe,Matamoros,17.905328,-97.895191
11,MIGUEL,Col. Reforma,Oaxaca,Huajuapan de León,Reforma,Av. Ermita,17.822826,-97.784944
12,MIGUEL,Tejaltitlán,Oaxaca,San Jerónimo Silacayoapilla,Tejaltitlán,Flores,17.79919,-97.842656
13,MIGUEL,Cerca de la Iglesia san Diego de Alcalá,Oaxaca,Huajuapan de León,Santa María Xochixtlapilco,,17.780684,-97.787974
14,MIGUEL,Col. Santa Rosa 2da Sección,Oaxaca,Huajuapan de León,Santa Rosa 2da Sección,,,
15,MIGUEL,Cerca del Parque Municipal ,Oaxaca,Santiago Ayuquililla,Centro,Porfirio Díaz,17.934752,-97.958497
16,MIGUEL,Antorcha Popular,Oaxaca,Huajuapan de León,Unidad Deportiva Antorcha ,Av. México,17.82941,-97.79
17,MIGUEL,Arroyo Chahue,Oaxaca,Santa María Huatulco,Arroyo Chahue,Bahía Maguey,15.77151,-96.141587
18,MIGUEL,Sector U2 Norte Canchas,Oaxaca,Santa María Huatulco,Sector U2 Norte,,15.785891,-96.141835
19,MIGUEL,"Sector H2, en las Canchas de Basquetbol",Oaxaca,Santa María Huatulco,Sector H2,,15.765435,-96.133454
20,MIGUEL,Frente a la Primaria Sor Juana Ines de la Cruz,Oaxaca,Santa María Tonameca,Cuatode Tonameca,,15.73481,-96.51984
21,MIGUEL,Rancho Parajito,Oaxaca,Santa María Huatulco,Rancho Parajito,,15.793333,-96.135
22,MIGUEL,Centro de Cozoaltepec,Oaxaca,Santa María Tonameca,Santa María Tonameca,,15.745644,-96.545506
23,MIGUEL,Sector U2 Parque,Oaxaca,Santa María Huatulco,Sector U2,,15.779874,-96.140308
24,MIGUEL,Col. Laguna Seca,Oaxaca,Santa María Huatulco,Laguna Seca,,15.794444,-96.128889
25,MIGUEL,Comunidad Piedra de Moros / Arrollo González,Oaxaca,Santa María Huatulco,Piedra de Moros,,15.798409,-96.231115
26,MIGUEL,Comunidad Paso Ancho,Oaxaca,Santa María Huatulco,Paso Ancho,,15.83279,-96.321783
27,MIGUEL,Palotada / Los Ciruelos,Oaxaca,San Pedro Pochutla,Centro,,15.723411,-96.388976
28,MIGUEL,Comunidad Barra de Copalita,Oaxaca,Santa María Huatulco,Barra de Copalita,,15.818744,-96.06109
29,MIGUEL,Cuapinolito,Oaxaca,Santa María Huatulco,Cuapinolito,,15.839973,-96.317019
30,MIGUEL,El Arenoso / El Faisán,Oaxaca,Santa María Huatulco,El Arenoso,,15.7908,-96.191744
31,MIGUEL,Bajos de Coyula/puente Coyula,Oaxaca,Santa María Huatulco,Puente de Coyula,,15.752659,-96.29909
32,MIGUEL,Sector I,Oaxaca,Santa María Huatulco,Sector I,,15.765917,-96.130904
33,MIGUEL,Barra de La Cruz,Oaxaca,Santiago Astata,Barra de La Cruz,,15.839358,-95.970705
34,MIGUEL,Fraccionamiento San Agustin,Oaxaca,Santa María Huatulco,Fraccionamiento San Agustin,,15.761974,-96.274323
35,MIGUEL,Fraccionamiento el Crucero o el Zapote,Oaxaca,Santa María Huatulco,Fraccionamiento el Crucero o el Zapote,,,
36,MIGUEL,Comunidad Barra de Copalita,Oaxaca,Santa María Huatulco,Barra de Copalita,,15.818744,-96.06109
37,MIGUEL,Explanada Municipal de San Martin Cansecos,Oaxaca,San Martin de los Cansecos,San Mateo Rio Hondo,Piedras Negras- San Mateo Rio Hondo,16.656705,-96.727847
38,MIGUEL,San Baltazar Chichicapam,Oaxaca,San Baltazar Chichicapam,centro,Calle Benito Juarez,,
39,MIGUEL,Cerca de la Telesecundaria Jalpan,Oaxaca,San Raymundo Jalpan,San Raymundo Jalpan,Privada de Arista,16.97534,-96.754687
40,MIGUEL,Hidalgo,Oaxaca,Coatecas,Ricardo Flores Magón 3ra sección,Hidalgo,16.54324,-96.673175
41,MIGUEL,Explanada Municipal San Martín Tilcajete,Oaxaca,San Martín Tilcajete,Centro,Progreso,16.860465,-96.69443
42,MIGUEL,Explanada Municipal San Miguel Ejutla,Oaxaca,San Miguel Ejutla,Morelos,Porfirio Díaz,16.577619,-96.735742
43,MIGUEL,Yaxe,Oaxaca,Yaxe,San Baltazar Chichicapam,,16.726129,-96.471358
44,MIGUEL,San Antonio Arrazola,Oaxaca,Santa Cruz Xoxocotlán,San Antonio Arrazola,,,
45,MIGUEL,Morelos,Oaxaca,Zimatlán de Álvarez,El Trapiche,Morelos,16.763822,-96.858029
46,MIGUEL,Reforma,Oaxaca,Heroica Cd. De Ejutla de Crespo,Heroica Cd. De Ejutla de Crespo,Reforma,16.615171,-96.719178
47,MIGUEL,Ayoquezco de Aldama,Oaxaca,Zimatlán de Álvarez,Ayoquezco de Aldama,,,
48,MIGUEL,Los Ocotes,Oaxaca,Heroica Cd. De Ejutla de Crespo,Los Ocotes,,,
49,MIGUEL,Hidalgo,Oaxaca,Coatecas,Ricardo Flores Magón 3ra sección,Hidalgo,16.54324,-96.673175
50,MIGUEL,Palacio Municipal,Oaxaca,San Pablo Huixtepec,Centro,Matamoros,16.82636,-96.78113
51,MIGUEL,Barrio San Antonio,Oaxaca,San Pablo Huixtepec,Barrio San Antonio,,,
52,MIGUEL,Vicente Guerrero,Oaxaca,Cuilapam de Guerrero,Vicente Guerrero,,,
53,MIGUEL,Tejas de Morelos,Oaxaca,Ocotlán de Morelos,Tejas de Morelos,,,
54,MIGUEL,Barrio de Arriba,Oaxaca,Zimatlán de Álvarez,Centro,,,
55,MIGUEL,Parque de San Pedro Apóstol,Oaxaca,Ocotlán de Morelos,Centro,,,
56,MIGUEL,Campo de Beisbol Tequio Monte Alban,Oaxaca,San Agustín de las Juntas,Centro,,,
57,MIGUEL,Col. Reforma,Oaxaca,Oaxaca,Reforma,,,
58,MIGUEL,Santiago Matatlán,Oaxaca,Santiago Matatlán,Santiago Matatlán,,16.868327,-96.381187
59,MIGUEL,San Baltazar Guelavila,Oaxaca,San Dionisio Ocotepec,Centro,,16.793966,-96.304495
60,MIGUEL,Fraccionamiento el Retiro,Oaxaca,Santa María Guelace,Fraccionamiento el Retiro,,17.04669,-96.63296
61,MIGUEL,San Sebastián Abasolo,Oaxaca,San Sebastián Abasolo,San Sebastián Abasolo,,16.995183,-96.589539
62,MIGUEL,Santa Lucia del Camino,Oaxaca,Santa Lucía del Camino,Villa de Díaz Ordaz,,,
63,MIGUEL,Benito Juárez,Oaxaca,Villa Díaz Ordaz,Villa Díaz Ordaz,Benito Juárez,16.996596,-96.432531
64,MIGUEL,San Andres Ixtlahuaca,Oaxaca,San Andres Ixtlahuaca,Benito Juárez,,17.071832,-96.82695
65,MIGUEL,Templo de San Lucas,Oaxaca,San Lucas Quiavíni,Centro,,16.895017,-96.468011
66,MIGUEL,San Juan Guelavia,Oaxaca,San Juan Guelavia,Morelos,,16.9565,-96.546105
67,MIGUEL,Av. Coixtlahuaca,Oaxaca,San Pablo Huitzo,San Pablo Huitzo,Av. Coixtlahuaca,17.277369,-96.885164
68,MIGUEL,San Dionisio Ocotepec,Oaxaca,San Dionisio Ocotepec,Centro,,16.802805,-96.393132
69,MIGUEL,Santa Ana del Valle,Oaxaca,Santa Ana del Valle,Santa Ana del Valle,,,
70,MIGUEL,Fraccionamiento el Rosario,Oaxaca,San Sebastián Tutla,Fraccionamiento el Rosario,,,
71,MIGUEL,San Marcos Tlapazola,Oaxaca,Tlacolula de Matamoros,Centro,Avenida Principal,16.868269,-96.379761
72,MIGUEL,Fraccionamiento Ciudad Yagul,Oaxaca,Tlacolula de Matamoros,Ciudad Yugul,,16.978338,-96.462632
73,MIGUEL,San Felipe Güila,Oaxaca,Santiago Matatlán,San Felipe Güila,,,
74,MIGUEL,San Bartolomé Quialana,Oaxaca,San Bartolomé Quialana,Centro,,16.903122,-96.501476
75,MIGUEL,Benito Juárez,Oaxaca,Villa Díaz Ordaz,Villa Díaz Ordaz,,16.996596,-96.432531
76,MIGUEL,Jalapa del Valle,Oaxaca,San Felipe Tejalápam,Jalapa del Valle,,,
77,MIGUEL,Av. Libertad ,Oaxaca,Santa María Atzompa,Centro,,,
78,MIGUEL,Miramar,Oaxaca,Pinotepa Nacional,Miramar,Progreso,16.333239,-98.055112
79,MIGUEL,Collantes,Oaxaca,Pinotepa Nacional,Centro,,16.187162,-97.970957
80,MIGUEL,"Parque Central Morelos, Santa Ma. Huazolotitlán.",Oaxaca,Santa Ma. Huazolotitlán,José María Morelos,,,
81,MIGUEL,Iglesia Santiago Apóstol,Oaxaca,San Pedro Jicayán ,Col. Centro,Calle Pacifico,16.448945,-98.015738
82,MIGUEL,Cubitan de Dolores,Oaxaca,San Andrés Huaxpaltepec,Centro,,16.358675,-97.891566
83,MIGUEL,Centro de Fe y Amor,Oaxaca,Santa Catarina Mechoacán,Centro,,16.333356,-98.058265
84,MIGUEL,Comedor Juquilita,Oaxaca,San Agustín Chayuco,Centro,,16.40232,-97.808108
85,MIGUEL,Col. Aviación,Oaxaca,Santiago Jamiltepec,Aviación,,16.450455,-98.014066
86,MIGUEL,Cerca de la Secundaria Tec. Ind. No. 123 T.M,Oaxaca,San Pedro Jicayán ,Itindúa,,16.331885,-98.046956
87,MIGUEL,Cruz de Itacuán,Oaxaca,Pinotepa Nacional,Cruz de Itacuán,,16.281379,-97.833559
88,MIGUEL,5 de Mayo,Oaxaca,Pinotepa Nacional,5 de Mayo,,16.21161,-97.97903
89,MIGUEL,El Carrizo,Oaxaca,Pinotepa Nacional,El Carrizo,,,
90,MIGUEL,Iglesia de San Andrés Tatachu,Oaxaca,San Andrés Huaxpaltepec,Centro,,16.329616,-97.916553
91,MIGUEL,Parque Central,Oaxaca,Pinotepa de Don Luis,Centro,,,
92,MIGUEL,Cerro de la Esperanza,Oaxaca,Pinotepa Nacional,La Esperanza,,16.211503,-97.978724
93,MIGUEL,La Noria,Oaxaca,Pinotepa Nacional,Centro,,16.202359,-98.063625
94,MIGUEL,Parque Rasgado,Oaxaca,Salina Cruz,María Lombardo,,16.99306,-95.202313
95,MIGUEL,Santa Cruz Bamba,Oaxaca,Santo Domingo Tehuantepec,Santa Cruz Bamba,,16.031679,-95.425597
96,MIGUEL,Deportiva Sur,Oaxaca,Salina Cruz,Deportiva Sur,,,
97,MIGUEL,Calle Manuel Ávila Camacho,Oaxaca,Salina Cruz,Francisco I Madero,,16.219407,-95.213022
98,MIGUEL,Barrio las Hormigas,Oaxaca,Salina Cruz,Las Hormigas,,16.181541,-95.193725
99,MIGUEL,Calle Virgilio Uribe,Oaxaca,Salina Cruz,Guadalupe,,16.176616,-95.197547
100,MIGUEL,Calle Loma Bonita,Oaxaca,Salina Cruz,Del Bosque,,16.213895,-95.222395
101,MIGUEL,Fraccionamiento Tortolita,Oaxaca,Salina Cruz,Playa la Colorada,Bahía San Diego,15.987747,-95.675805
102,MIGUEL,Hidalgo Poniente,Oaxaca,Salina Cruz,Hidalgo Poniente,,,
103,MIGUEL,Morro de Mazatan,Oaxaca,Santo Domingo Tehuantepec,Morro de Mazatan,,,
104,MIGUEL,Calzada Teniente José Azueta,Oaxaca,Salina Cruz,San Pablo Norte,,16.172907,-95.201725
105,MIGUEL,Av. del Trabajo,Oaxaca,Salina Cruz,Barrio Espinal,Av. del Trabajo,16.184708,-95.198517
106,MIGUEL,Calle Venustiano Carranza,Oaxaca,Salina Cruz,San Pablo Sur,,16.172923,-95.205381
107,MIGUEL,Mercado Publico Independencia,Oaxaca,San Pedro Huilotepec,Centro,,16.244132,-95.152956
108,MIGUEL,Hugo Mayoral,Oaxaca,Salina Cruz,Hugo Mayoral,,,
109,MIGUEL,Barrio Nuevo,Oaxaca,Salina Cruz,Barrio Nuevo,,16.179255,-95.198141
110,MIGUEL,Calle la Bahía Ventosa,Oaxaca,Salina Cruz,La Soledad,,16.188723,-95.184264
111,MIGUEL,Calle Miahuatlán,Oaxaca,Salina Cruz,Col. Petrolera,,16.204591,-95.192439
112,MIGUEL,Unidad Deportiva Imss,Oaxaca,Salina Cruz,Deportiva Norte,,16.213851,-95.21112
113,MIGUEL,Av. Tampico,Oaxaca,Salina Cruz,1 de Mayo,Av. Tampico,,
114,MIGUEL,Santa Cruz Bamba,Oaxaca,Santa Cruz Bamba,Centro,,16.031679,-95.425597
115,MIGUEL,Calle Tehuantepec,Oaxaca,Salina Cruz,Porfirio Díaz,,,
116,MIGUEL,Av. Pipila,Oaxaca,Santo Domingo Tehuantepec,José López Portillo,Esquina Cuauhtémoc ,16.312414,-95.258371
117,MIGUEL,Av. Aquiles Serdán,Oaxaca,Santo Domingo Tehuantepec,Barrio Lieza,Esquina con Cuauhtémoc,16.331605,-95.240606
118,MIGUEL,Calle Morelos ,Oaxaca,Santa María Mexquitilla,Santa Maria Mixtequilla,Calle Morelos esquina Ignacio López Rayón,16.37548,-95.260041
119,MIGUEL,Avenida Juárez,Oaxaca,Santo Domingo Tehuantepec,Barrio Jalisco,Avenida Juárez,16.326824,-95.231374
120,MIGUEL,Iglesia de la Santa Cruz,Oaxaca,San Pedro Comitancillo,Centro,,16.491987,-95.160923
121,MIGUEL,Parque Garibaldi,Oaxaca,Ixtepec,Moderna,,16.556518,-95.095466
122,MIGUEL,Santo Domingo Chihuitán,Oaxaca,Santo Domingo Chihuitán,El Rosario,,16.591749,-95.162422
123,MIGUEL,Calle Morelos ,Oaxaca,Santa María Mexquitilla,Santa Maria Mixtequilla,"Calle Morelos esquina Ignacio López Rayón
Si no ubicas a la unidad ponte en contacto: mcano@ecoce.mx
800 847 7402 Ext.110",16.37548,-95.260041
124,MIGUEL,Jalapa del Marqués,Oaxaca,Jalapa del Marques,Centro,,,
125,MIGUEL,Calle Porfirio Diaz ,Oaxaca,Santo Domingo Tehuantepec,San Antonio Monterrey,Entre Francisco I. Madero ,16.246264,-95.191631
126,MIGUEL,Calle Juárez ,Oaxaca,Santo Domingo Tehuantepec,San Luis Rey,,16.380163,-95.240956
127,MIGUEL,Calle Coronel Francisco Cortez ,Oaxaca,San Blas Atempa,San Blas Atempa,Esquina Francisco I. Madero,16.325392,-95.221578
128,MIGUEL,Comedor Lucy,Oaxaca,Magdalena Tequisistlán,Centro,Calle Benito Juárez y del Beso,16.399994,-95.605087
129,MIGUEL,Las Pajimas,Oaxaca,Magdalena Tequisistlán,Las Pajimas,,,
130,MIGUEL,Calle Morelos ,Oaxaca,Santa María Mexquitilla,Santa Maria Mixtequilla,Calle Morelos esquina Ignacio López Rayón ,16.37548,-95.260041
131,MIGUEL,Rincón Moreno,Oaxaca,Santo Domingo Tehuantepec,Rincón Moreno,,16.229478,-95.312736
132,MIGUEL,Parque Municipal,Oaxaca,El Espinal,El Espinal,Cristóbal Colón y Benito Juárez,16.485541,-95.044025
133,MIGUEL,Ciudad Ixtepec,Oaxaca,Ixtepec,Ciudad Ixtepec,,16.556004,-95.095693
134,MIGUEL,Calle Ixtaltepec ,Oaxaca,Santo Domingo Tehuantepec,Centro,,,
135,MIGUEL,El Trópico,Oaxaca,San Juan Bautista Tuxtepec,El Trópico,,,
136,MIGUEL,El Naranjal,Oaxaca,San José Chiltepec,El Naranjal,,,
137,MIGUEL,Paso Nuevo la Hamaca,Oaxaca,Santa María Jacatepec,Paso Nuevo la Hamaca,,,
138,MIGUEL,El Arenal,Oaxaca,San Juan Bautista Valle Nacional,El Arenal,,,
139,MIGUEL,Comunidad Bethania,Oaxaca,San Juan Bautista Tuxtepec,Comunidad Bethania,,,
140,MIGUEL,Camarón Salsipuedes ,Oaxaca,San Juan Bautista Tuxtepec,Camarón Salsipuedes ,,18.108854,-96.202631
141,MIGUEL,Piedra Quemada,Oaxaca,San Juan Bautista Tuxtepec,Piedra Quemada,,,
142,MIGUEL,Comunidad Cerro Marín,Oaxaca,San Juan Bautista Valle Nacional,Cerro Marín,,,
143,MIGUEL,Comunidad Zacate Colorado,Oaxaca,San Juan Bautista Tuxtepec,Comunidad Zacate Colorado,,,
144,MIGUEL,Comunidad Chinantilla,Oaxaca,San Juan Bautista Valle Nacional,Comunidad Chinantilla,,,
145,MIGUEL,Comunidad Reforma,Oaxaca,San Juan Bautista Tuxtepec,Comunidad Reforma,,,
146,MIGUEL,Comunidad Vega del Sol,Oaxaca,Santa María Jacatepec,Comunidad Vega del Sol,,,
147,MIGUEL,Frente al COBAO 54 Tierra Negra,Oaxaca,San José Chiltepec,Tierra Negra,,17.95432,-96.163913
148,MIGUEL,Col. Centro,Oaxaca,San Juan Bautista Valle Nacional,Centro,,,
149,MIGUEL,Las Limas,Oaxaca,San Juan Bautista Tuxtepec,Las Limas,,18.069973,-96.124012
150,MIGUEL,Comunidad Nuevo Faisán,Oaxaca,San Juan Bautista Tuxtepec,Comunidad Nuevo Faisán,,,
151,MIGUEL,Camarón Salsipuedes ,Oaxaca,San Juan Bautista Tuxtepec,Camarón Salsipuedes ,,18.108854,-96.202631
152,MIGUEL,La Trinidad,Oaxaca,Santa María Jacatepec,La Trinidad,,,
153,MIGUEL,Comunidad Santa Sofía,Oaxaca,San José Chiltepec,Comunidad Santa Sofía,,,
154,MIGUEL,Comunidad de la Mina,Oaxaca,San Juan Bautista Tuxtepec,La Mina,,17.986081,-96.100046
155,MIGUEL,La Blanca,Oaxaca,Santo Domingo Ingenio ,La Blanca,,16.59386,-94.69302
156,MIGUEL,La Venta,Oaxaca,Juchitán de Zaragoza,La Venta,,16.57567,-94.81622
157,MIGUEL,El Porvenir,Oaxaca,San Miguel Chimalapa,El Porvenir,,17.472052,-95.25688
158,MIGUEL,Vista Hermosa,Oaxaca,San Miguel Chimalapa,Vista Hermosa,,16.667201,-94.784553
159,MIGUEL,San Miguel Chimalapa,Oaxaca,San Miguel Chimalapa,San Miguel Chimalapa,,16.479768,-94.83445
160,MIGUEL,Unión Hidalgo,Oaxaca,Unión Hidalgo,Centro,,16.479768,-94.83445
161,MIGUEL,Unión Hidalgo,Oaxaca,Unión Hidalgo,Centro,,16.479768,-94.83445
162,MIGUEL,Parque San Pedro Tepanatepec,Oaxaca,San Pedro Tapanatepec,Centro,,16.366816,-94.193928
163,MIGUEL,Rincón Juarez,Oaxaca,San Pedro Tapanatepec,Rincón Juarez,,16.280988,-94.354205
164,MIGUEL,Santo Domingo Ingenio ,Oaxaca,Santo Domingo Ingenio ,Centro,,16.584291,-94.769716
165,MIGUEL,Unión Hidalgo,Oaxaca,Unión Hidalgo,Centro,,16.479768,-94.83445
166,MIGUEL,San Dionisio del Mar,Oaxaca,San Dionisio del Mar,Centro,,16.323834,-94.756485
167,MIGUEL,Chicapa de Castro,Oaxaca,Juchitán de Zaragoza,Centro,,16.438594,-94.82276
168,MIGUEL,Asunción Ixtaltepec,Oaxaca,Asunción Ixtaltepec,Centro,,16.503403,-95.057636
169,MIGUEL,Boca del Monte,Oaxaca,San Juan Guachicovi,Boca del Monte,,17.061871,-95.017931
170,MIGUEL,Hidalgo Norte,Oaxaca,Matías Romero,Hidalgo Norte,,16.880214,-95.050076
171,MIGUEL,Asunción Ixtaltepec,Oaxaca,Asunción Ixtaltepec,Centro,,16.503403,-95.057636
172,MIGUEL,Colegio de Bachilleres del Estado de Oaxaca Plantel 40 Bajo de Chila T.M,Oaxaca,San Pedro Mixtepec Dtto-22,Centro,Av. Primero de Mayo s/n esq. carretera Costera,,
173,MIGUEL,Primaria Benito Juárez Tilzapote T.M.,Oaxaca,Santa María Tonameca,Tilzapote,Carretera Km. 1 Pochutla Col. Tilzapote C.P. 70946,,
174,MIGUEL,J.N. Mestizo Jean Piaget T.M. ,Oaxaca,Santa María Tonameca,Agua Blanca,Carretera Federal 200 Col. Agua Blanca C.P. 70944,,
175,MIGUEL,Primaria Vicente Guerrero T.M.,Oaxaca,Santa María Tonameca,Centro,"Carretera  Costera Puerto Escondido-Pochutla, colonia Centro. C.P. 70944",,
176,MIGUEL,Secundaria General Macedonio Alcalá T.M.,Oaxaca,Santa María Tonameca,Centro,"Las Azucenas s/n, colonia Centro",,
177,MIGUEL,Primaria Ignacio Mariscal T.M.,Oaxaca,Santa María Colotepec,Barra de Navidad,"Avenida Principal s/n, Colonia Barra de Navidad, C.P. 70934",,
178,MIGUEL,Primaria Francisco I. Madero T.M. (Tomatal),Oaxaca,Santa María Colotepec,El Tomatal,"Calle Centro s/n, Colonia El Tomatal, C.P. 70934",,
179,MIGUEL,Primaria Benjamín Bloom T.M.,Oaxaca,San Pedro Mixtepec Dtto-22,Fraccionamiento Bacocho,"Av. Tlacochahuaya Mz. IV-A lt1, Col. Fraccionamiento Bacocho, C.P. 71980",,
180,MIGUEL,J.N. María del Carmen Serdán (Barra) T.M.,Oaxaca,Santa María Colotepec,Barra de Navidad,"Calle Principal s/n, Colonia Barra de Navidad, C.P. 70934",,
181,MIGUEL,Primaria 1972 Año de Juárez T.M.,Oaxaca,San Pedro Mixtepec Dtto-22,Lázaro Cárdenas,"Avenida María Matamoros s/n, colonia Lázaro Cárdenas, Puerto Escondido, C.P. 71980",,
182,MIGUEL,Preparatoria Federal por Cooperación Puerto Escondido T.M.,Oaxaca,San Pedro Mixtepec Dtto-22,Sector Hidalgo,"Eje Hidalgo esquina con Quinta Poniente, colonia Sector Hidalgo. C.P. 71980",,
183,MIGUEL,Primaria Álvaro Carrillo Alarcón T.M.,Oaxaca,San Pedro Mixtepec Dtto-22,Fraccionamiento La Parota,"Ceiba s/n, colonia Fraccionamiento La Parota. C.P. 71980",,
184,MIGUEL,Primaria Lic. Adolfo López Mateos T.M.,Oaxaca,San Pedro Mixtepec Dtto-22,Centro,"Primera Poniente s/n, ColoniaCentro, C.P. 71980",,
185,MIGUEL,J.N. a Primaria Centro de Atención Múltiple 20 T.M.,Oaxaca,San Pedro Mixtepec Dtto-22,Fraccionamiento Agua Marina,"Agua Turquesa s/n, Colonia Fraccionamiento Agua Marina, C.P. 71980",,
186,MIGUEL,J.N Leyes de Reforma T.M,Oaxaca,San Pedro Mixtepec Dtto-22,Sector Reforma,3 Oriente y 5 Norte s/n Col. Sector Reforma C.P 71980,,
187,MIGUEL,Primaria Ignacio Manuel Altamirano T.M,Oaxaca,San Pedro Mixtepec Dtto-22,Sector Reforma,"Calle Principal s/n, Col. Sector Reforma C.P71980",,
188,MIGUEL,Secundaria Técnica 122 T.M.,Oaxaca,San Pedro Mixtepec Dtto-22,Barrio Bajo Bajos de Chila,1° de Mayo esq Flores Magon s/n Col. Barrio Bajo Bajos de Chila C.P 71996 ,,
189,MIGUEL,Primaria Fed. Antonio Caso T.M.,Oaxaca,San Pedro Mixtepec,Barrio Las Flores Bajos de Chila,2 de Abril s/n Col. Barrio Las Flores Bajos de Chila C.P 71981 ,,
190,MIGUEL,Secundaria  Técnica 174 T.M.,Oaxaca,San Pedro Mixtepec Distrito 26,Fracc. Rinconada,Blvrd. Del Pacifico s/n Fracc. Rinconada C.P 71983 ,,
191,MIGUEL,J.N Colegio Leona Vicario T.M.,Oaxaca,San Pedro Mixtepec Dtto-22,Granjas,Oceano Pacifico s/n Col. Granjas C.P 71984  ,,
192,MIGUEL,Primaria Juan Rulfo T.M.,Oaxaca,San Pedro Mixtepec Dtto-22,Granjas del Pescador,Oceano Pacifico s/n Col. Granjas del Pescador C.P 71980 ,,
193,MIGUEL,CBTIS 240 T.M.,Oaxaca,San Pedro Mixtepec Dtto-22,Aeropuerto,Raul Gonzalez esq. Nuevo Leon s/n Col. Aeropuerto C.P 71980 ,,
194,MIGUEL,Primaria Octavio Paz T.M.,Oaxaca,San Pedro Mixtepec Dtto-22,Aeropuerto,5 de febrero 305 Col. Aeropuerto C.P 71980 ,,
195,MIGUEL,COBAO 66 T.M.,Oaxaca,San Pedro Mixtepec Dtto-22,Lomas de San Pedro,Lomas de San Pedro s/n  Col. Lomas de San Pedro  C.P 71980 ,,
196,MIGUEL,J.N Emiliano Zapata  T.M.,Oaxaca,San Pedro Mixtepec Dtto-22,Las Flores,Claveles s/n Col. Las Flores C.P 71980 ,,
197,MIGUEL,Secundaria Técnica 210 T.M.,Oaxaca,San Pedro Mixtepec Dtto-22,Aeropuerto,Emiliano Zapata s/n Col. Aeropuerto C.P 71980 ,,
198,MIGUEL,Primaria 21 de Marzo T.M.,Oaxaca,San Pedro Mixtepec Dtto-22,Reforma,1 norte y 12 oriente s/n Col. Reforma C. C.P 71980,,
199,MIGUEL,Secundaria General Lucio Cabañas T.M.,Oaxaca,San Pedro Mixtepec Dtto-22,San Miguel,Camino a la Union s/n Col. San Miguel C.P 71980 ,,
200,MIGUEL,J.N Niños Héroes T.M.,Oaxaca,San Pedro Mixtepec Dtto-22,Benito Juarez,Av Cuauhtemoc s/n Col.  Benito Juarez C.P 71980,,
201,MIGUEL,Primaria General Vicente Guerrero T.M.,Oaxaca,San Pedro Mixtepec Dtto-22,Arroyo seco,Mar Mediterraneo 400 Col. Arroyo seco C.P 71980,,
202,MIGUEL,J.N Itzcoatl T.M.,Oaxaca,San Pedro Mixtepec Dtto-22,Libertad,Conocida s/n Col. Libertad C.P 71980,,
203,MIGUEL,J.N Fernando Montes de Oca T.M.,Oaxaca,Santa María Colotepec,La Quebradora,Av Rio de la Bomba s/n Col. La Quebradora C.P 70938 ,,
204,MIGUEL,Primaria  20 de noviembre T.M.,Oaxaca,Santa María Colotepec,Emiliano Zapata,20 de noviembre s/n Col. Emiliano Zapata C.P 70938,,
205,MIGUEL,Preparatoria 2 de Octubre T.M.,Oaxaca,San Gabriel Mixtepec,Barrio Municipal,Andador Justo Sierra s/n Col. Barrio Municipal C.P 71980,,
206,MIGUEL,Secundaria Técnica 136 San Gabriel T.M.,Oaxaca,San Gabriel Mixtepec,Bosque,Calzada Ayuntamiento 80 Col. Bosque C.P 71980,,
207,MIGUEL,CECYTE Plantel 37 T.M.,Oaxaca,San Pedro Mixtepec Dtto-22,Bosque,Ayuntamiento 80 Col. Bosque C.P 71980,,
208,MIGUEL,J.N Ignacio Manuel Altamirano T.M.,Oaxaca,San Gabriel Mixtepec,Hidalgo,Ayuntamiento s/n Col. Hidalgo C.P 71980  ,,
209,MIGUEL,J.N Lazaro Cardenas T.M.,Oaxaca,San Pedro Mixtepec Dtto-22,Barrio Las Flores,Melchor Ocampo s/n Col. Barrio Las Flores   C.P 71981 ,,
210,MIGUEL,Secundaria Centro Educativo Manantial T.M.,Oaxaca,San Pedro Mixtepec Dtto-22,Centro,1 norte y 4 oriente s/n Col. Centro C.P ,,
211,MIGUEL,Primaria José Maria Morelos  T.M.,Oaxaca,San Pedro Mixtepec Dtto-22,Las Flores,Dalias s/n Col. Las Flores  C.P 71980,,
212,MIGUEL,Primaria Melchor Ocampo T.M. ,Oaxaca,San Pedro Mixtepec Dtto-22,El Puente San José,Carretera a Oaaxaca km 8 Col. El Puente San José C.P 71990 ,,
213,MIGUEL,Primaria Benito Juárez T.M.,Oaxaca,San Pedro Mixtepec Dtto-22,Los Limones San Pedro,Carretera a Oaaxaca km 8 Col. Los Limones San Pedro  C.P 71990 ,,
214,MIGUEL,Primaria Leyes de Reforma T.M.,Oaxaca,San Pedro Mixtepec Dtto-22,Sector Reforma,Mariano Matamoros s/n Col. Sector Reforma C.P 71990,,
215,MIGUEL,Preparatoria COBAO 53 San Pedro T.M,Oaxaca,San Pedro Mixtepec Dtto-22,Sector Reforma,Av Constitucion s/n Col. Sector Reforma C.P 71990,,
216,MIGUEL,J.N. Josefa Ortiz de Dominguez T.M.,Oaxaca,San Pedro Mixtepec Dtto-22,La Barra de Colotepec,Av Principal s/n Col. La Barra de Colotepec C.P 70934,,
217,MIGUEL,Primaria Tierra y Libertad T.M.,Oaxaca,San Pedro Mixtepec Dtto-22,Zicatela,Av Brisas s/n Col. Zicatela C.P 70934,,
218,MIGUEL,Preparatoria COBAO Plantel 36 T.M.,Oaxaca,San Pedro Mixtepec Dtto-22,Centro ,Av Independencia s/n Col. Centro C.P  70934,,
219,MIGUEL,Primaria Miguel Hidalgo T.M.,Oaxaca,San Pedro Mixtepec Dtto-22,Centro,Plaza Principal s/n Col. Centro C.P 71990,,
220,MIGUEL,CECYTE Plantel 31 ,Oaxaca,Santa María Colotepec,Santa Elena,Camino a la playa s/n Col. Santa Elena C.P 70996,,
221,MIGUEL,Primaria Lázaro Cárdenas T.M.,Oaxaca,Villa de Tututepec,La Cruz,Av Nicolas Bravo s/n Col. La Cruz C.P 71830,,
222,MIGUEL,J.N Bertha Domínguez Martínez T.M.,Oaxaca,Villa de Tututepec,La Cruz,Guadalupe Victoria s/n Col. La Cruz C.P 71830,,
223,MIGUEL,Primaria Progreso T.M.,Oaxaca,Villa de Tututepec,Balbuena,Morelos 62 Col. Balbuena C.P 71830,,
224,MIGUEL,Secundaria 23 de marzo T.M.,Oaxaca,Villa de Tututepec,La Soledad,Av. 20 de noviembre s/n Col. La Soledad C.P 71830 ,,
225,MIGUEL,COBAO Plantel 25 Rio Grande T.M.,Oaxaca,Villa de Tututepec,Valle verde,Carretera Costera s/n Col. Valle verde C.P 71830,,
226,MIGUEL,Primaria Narciso Mendoza T.M.,Oaxaca,Santa María Colotepec,La Barra de Colotepec,Principal s/n Col. L Barra Colotepec C.P 70934,,
227,MIGUEL,Secundaria Tec. 235 T.M.,Oaxaca,Santa María Colotepec,La Barra de Colotepec,Parota 103 Col. La Barra de Colotepec C.P 70934,,
228,MIGUEL,Primaria Guadalupe Victoria T.M.,Oaxaca,San Pedro Mixtepec,El Macuil,Carretera a Oaxaca s/n Col. El Macuil C.P 71980 ,,
229,MIGUEL,Sec. Tec. 241 T.M.,Oaxaca,San Pedro Mixtepec,San Andres Copala ,Principal s/n Col. San Andres Copala C.P 71990 ,,
230,MIGUEL,J.N. Pablo Neruda T.M,Oaxaca,San Pedro Mixtepec,San Andres Copala,Principal s/n Col. San Andres Copala C.P 71990 ,,
231,MIGUEL,Primaria Revolución T.M.,Oaxaca,San Pedro Mixtepec,San Andres Copala,Principal s/n Col. San Andres Copala C.P 71990 ,,
232,MIGUEL,Primaria y Secundaria Libertadores de America T.M.,Oaxaca,San Pedro Mixtepec,Sector Almendras,Tamarindos 806  Col. Sector Almendras C.P 71985,,
233,MIGUEL,Primaria Rosario Castellanos T.M.,Oaxaca,Santa María Colotepec,Rio Valdeflores,Principal s/n  Col. Rio Valdeflores C.P 70934 ,,
234,MIGUEL,Telesecundaria 1635Z T.M.,Oaxaca,San Pedro Mixtepec,Aguaje del Zapote,1 de mayo s/n Col. Aguaje del Zapote C.P 71996,,
235,MIGUEL,Telesecundaria 73 T.M.,Oaxaca,Villa de Tututepec,Hidalgo,Independencia s/n Col. Hidalgo C.P 71831,,
236,MIGUEL,J.N. Frida Kahlo T.M.,Oaxaca,Santa María Colotepec, Emiliano Zapata,Av Plan de Ayala s/n Col.Emiliano Zapata C.P 71980,,
237,MIGUEL,J.N. Andrés Henestrosa T.M.,Oaxaca,San Pedro Mixtepec,Ébano,2da norte s/n Col. Ebano C.P 71980,,
238,MIGUEL,J.N. Benito Juarez T.M.,Oaxaca,San Pedro Mixtepec,Jardines,Almendros y Cerezos s/n Col. Jardines C.P 71980,,
239,MIGUEL,Primaria Gral. Lázaro Cárdenas del Rio T.M.,Oaxaca,San Pedro Mixtepec,Centro,Carretera Costera s/n Col. Centro C.P 71981,,
240,MIGUEL,Primaria José María Morelos T.M.,Oaxaca,Santa María Colotepec,EL Bajo,Principal s/n Col. EL Bajo C.P 70934,,
241,MIGUEL,Primaria Emiliano Zapata T.M.,Oaxaca,San Pedro Mixtepec,Centro El Huarumbo,Miguel Hidalgo Col Centro El Huarumbo C.P71997,,
242,MIGUEL,Primaria Formal Emiliano Zapata T.M.,Oaxaca,San Gabriel Mixtepec,Santa Maria Mixtepec,Francisco Villa Col. Santa Maria Mixtepec C.P 71970,,
243,MIGUEL,J.N. Niños Héroes T.M.,Oaxaca,Villa de Tututepec,San Jose Manialtepec,Benito Juarez Col. San Jose Manialtepec C.P 71830,,
244,MIGUEL,Primaria Gral. Ignacio Zaragoza T.M.,Oaxaca,Villa de Tututepec,El Cacalote,Carretera Costera Col. El Cacalote C.P 71830,,
245,MIGUEL,Telesecundaria 78 T.M.,Oaxaca,Villa de Tututepec,El Cacalote,Av 5 de mayo Col.  El Cacalote C.P 71830,,
246,MIGUEL,Primaria Rural Niño Artillero T.M.,Oaxaca,Villa de Tututepec,San Isidro Llano,Manuel Galindo Col. San Isidro Llano,,
247,MIGUEL,Primaria Miguel Hidalgo T.M.,Oaxaca,Villa de Tututepec,Hidalgo,Av Independencia Col. Hidalgo C.P 71830,,
248,MIGUEL,Primaria Don Miguel Hidalgo y Costilla T.M,Oaxaca,Villa de Tututepec,Aguazarca,16 de septiembre Col. Aguazarca C.P 71836,,
249,MIGUEL,Primaria Alfonso Toledo Brito T.M.,Oaxaca,Villa de Tututepec,Vicente Guerrero,Graciano Benitez Col. Vicente Guerrero C.P 71830,,
250,MIGUEL,Primaria Prof. Lizandro Calderón T.M,Oaxaca,Villa de Tututepec,Las Flores,Av Oaxaca Col. Las Flores C.P 71830,,
251,MIGUEL,Primaria Benito Juarez T.V,Oaxaca,Villa de Tututepec,Las Flores,Av Oaxaca Col. Las Flores C.P 71830 ,,
252,MIGUEL,Primaria Hermanos Flores Magon T.M,Oaxaca,Santos Reyes Nopala,Cañada Los Matus,Carretera a San Gabriel s/n Col. Cañada Los Matus C.P 71960 ,,
253,MIGUEL,Preparatoria Ricardo Flores Magón T.M.,Oaxaca,Santos Reyes Nopala,Jacarandas,Kinduli s/n Col. Jacarandas C.P 71960,,
254,MIGUEL,Primaria Benito Juarez T.M.,Oaxaca,Santos Reyes Nopala,Barrio de Jesus,Av Ignacio Zaragoza 28 Col. Barrio de Jesus C.P 71960,,
255,MIGUEL,Secundaria General Jose Vasconcelos T.M,Oaxaca,Santos Reyes Nopala,La Toma,Av Hidalgo s/n Col. La Toma C.P 71960,,
256,MIGUEL,Primaria Rural Emiliano Zapata T.M ,Oaxaca,Villa de Tututepec,El Venado,Domicilio Conocido s/n  Col. El Venado C.P 71830 ,,
257,MIGUEL,Secundaria Tecnica 39 T.M.,Oaxaca,Santos Reyes Nopala,Barrio de San Antonio,Ignacio Zaragoza s/n  Col. Barrio de San Antonio C.P 71960,,
258,MIGUEL,Escuela Secundaria General No. 229 Frida Khalo T.M.,Oaxaca,Santa María Colotepec, El Tomatal,"Carretera Costera km 159, El Tomatal, C.p. 70934",,
259,ISE,Reciclaje Patricia,Oaxaca,Animas Trujano,Centro,"Carretera a Puerto Escondido S/N, Col. Centro
Animas Trujano, Oax.",17.030333,-96.712222
260,ISE,Se compran metales,Oaxaca,Asunsión Nochixtlán,La Joya,"Pino S / N, La Joya
Asunción Nochixtlán, Oax.",17.453184,-97.226216
261,ISE,Punto Verde,Oaxaca,Huajuapan de León,Tepeyac,"C. 2 de Abril LB, Tepeyac, CP. 69006
Huajuapam de León, Oax.",17.813894,-97.787766
262,ISE,Metales Bernal,Oaxaca,Juchitan de Zaragoza,Tonatati,"Libramiento juchitan la ventosa Tonatati, 70000 Juchitán de Zaragoza, Oax.",16.45724652349711,-95.01432795584583
263,ISE,Clean Plastic S.A. de C.V.,Oaxaca,Oaxaca,Barrio de Jalatlaco,"Curtidurías 106, Barrio de Jalatlaco CP. 68080
Oaxaca de Juárez, Oax",17.065776,-96.716276
264,ISE,Recicladora de Oaxaca,Oaxaca,Oaxaca,San Sebastian Etla,"Carretera Internacional Km. 125, San Sebastián Etla, CP. 68258
Oaxaca de Juárez, Oax.",17.173114936588558,-96.79105646897136
265,ISE,Se compra fierro,Oaxaca,Oaxaca,Universidad,"Reforma Agraria 225A, Universidad, Agencia de Policia de Cinco Señores, CP. 68120
Oaxaca de Juárez, Oax.",17.051522,-96.706435
266,ISE,Reciclados Montoya,Oaxaca,Oaxaca ,La Joya,"Av. Montoya 319, La Joya, CP 68140
Oaxaca de Juárez, Oax.",17.067011,-96.752758
267,ISE,Reciclables el Chuy,Oaxaca,Oaxaca ,Oaxaca de Juarez,"Camino viejo a San Jacinto esquina Av. Libertad S/N CP.  71220
Oaxaca de Juárez, Oax.",17.099797242443955,-96.77093996477223
268,ISE,Reciclapapel S.A. de C.V. (Comercial),Oaxaca,Oaxaca ,Paraje el humedal,"Calle Sabinos 100, Col Paraje el humedal, Trinidad de Viguera CP. 68050
Oaxaca de Juárez, Oax.",17.11770264147676,-96.7711910512463
269,ISE,David Asunción,Oaxaca,Oaxaca ,San Isidro,"Calle San Ángel 217 CP. 68276
San Isidro, Oax.",17.130098745165,-96.7624397406365
270,ISE,Ambioental Reciclados y Soluciones Ambientales S.A. de C.V.,Oaxaca,Oaxaca ,Trinidad Viguera,"Recepción en Carretera Internacional 4006-B, Col. San Isidro,Pueblo Nuevo.
Oaxaca, Oax.",,
271,ISE,Grupo GASA,Oaxaca,Oaxaca ,Trinidad Viguera,"Libramiento Norte No. 116, Trinidad Viguera
Oaxaca, Oax.",,
272,ISE,Ambioental Reciclados y Soluciones Ambientales S.A. de C.V. ,Oaxaca,Salina Cruz,Jardines,"Calzada Refinería S/N  Col. Jardines
Salina Cruz, Oax. ",,
273,ISE,Reciclados del Itzmo,Oaxaca,Salina Cruz,,"Dias Ordaz 19, Colonia Deportiva Norte",,
274,ISE,Compra y venta de fierro viejo,Oaxaca,San Agustin de las Juntas,San Agustin de las Juntas,"Av. Símbolos Patrios 407, San Agustín de las Juntas, CP. 71238
San Agustín de las Juntas, Oax.",17.012195882048143,-96.71256874354582
275,ISE,Eco Valle,Oaxaca,San Andrés Huayápam,Zoogocho,"Carretera Antigua a San Andrés Huayapam 114, Zoogocho
San Andrés Huayápam, Oax.",17.092175,-96.683053
276,ISE,David Perez Marcial,Oaxaca,San Bartolo Coyotepec,12 de Julio,"Calle Cascada No.2 Colonia 12 de Julio
San Bartolo Coyotepec, Oax.",,
277,ISE,Grupo Reciclador de Papel y Cartón LEAMRADE S.A DE C.V,Oaxaca,San Bartolo Coyotepec,El Rosario,"Oaxaca - Puerto Escondido 300, El Rosario, CP. 71256
San Bartolo Coyotepec, Oax.",16.951425273235344,-96.70745989644672
278,ISE,Comercializadora de Chatarra,Oaxaca,San Bartolo Coyotepec,San Bartolo Coyotepec,"Av. Mojonera 4, San Bartolo Coyotepec, CP. 71256
San Bartolo Coyotepec, Oax.",16.944644754306548,-96.70667047715274
279,ISE,Bio Pappel Printing S.A de C.V,Oaxaca,San Juan Bautista Tuxtepec,San Juan Bautista Tuxtepec,"Ejido Benito Juárez s/n, CP. 68300
San Juan Bautista Tuxtepec, Oax. ",,
280,ISE,ECO Company Plastics,Oaxaca,San Juan Bautista Tuxtepec,,"Km 3.5 Carretera Tuxtepec - Loma Bonita, Col. El Silverio
San Juan Bautista Tuxtepec, Oax",18.059691,96.179039
281,ISE,Elizabeth Ríos Martínez,Oaxaca,San Pedro Mixtepec,Bajos de Chila,,"16.01436332729187, ",-97.43275677567723
282,ISE,Jungla Plástica A.C,Oaxaca,San Pedro Mixtepec,Centro," Calle 6a. norte número 205, Centro Puerto Escondido,
San Pedro Mixtepec, Oax.",15.867266685642221,-97.0712435075845
283,ISE,Centro de Acopio Yo Reciclo,Oaxaca,San Pedro Mixtepec,,"Benito Juárez, Puerto Escondido CP. 71985
San Pedro Mixtepec, Oax.",15.874375108907156,-97.07202882951742
284,ISE,Ambioental Reciclados y Soluciones Ambientales S.A. de C.V.,Oaxaca,San Pedro Pochutla,,"Carretera Federal 200, 1era Seccion
San Pedro Pochutla, Oax.",,
285,ISE,Desperdicios Industriales,Oaxaca,San Pedro Pochutla,,"Calle Morelos S/N Barrio El Panteon
San Pedro Pochutla, Oax",15.74784256991782,-96.46986456920649
286,ISE,Compra y venta de fierro viejo,Oaxaca,Santa Lucia del Camino,Fernando Gomez Sandoval,"Av. Ferrocarril 121, Fernando Gomez Sandoval, CP. 68100
Santa Lucía del Camino, Oax.",17.058061012265377,-96.70942714678038
287,ISE,El imán,Oaxaca,Santa Lucia del Camino,Santa Maria Ixcotel,"Carretera Oaxaca, Puerto Angel Km.13
Oaxaca. Av. 16 de septiembre No. 47 casi esquina Camino Nacional
Sta. Ma. Ixcotel
Santa Lucia del Camino, Oax.",17.064251,-96.702238
288,ISE,Grupo Min,Oaxaca,Santa Maria Atzompa,Odisea,"G. Eymard Marcial Martínez Zeus 101 Col Odisea
Sta María Atzompa, Oax",17.09865913842281,-96.76658870598646
289,ISE,Ambioental Reciclados y Soluciones Ambientales S.A. de C.V. ,Oaxaca,Santa Maria Coyotepec,Centro,"Carretera 175 Km 9, Centro, CP. 71254
Santa María Coyotepec, Oax.",16.97587358664592,-96.70749003191179
290,ISE,Ecocel,Oaxaca,Santa Maria Coyotepec,,"Km. 9.5 Carret. Oaxaca-Pto. Ángel. Paraje el Rancho, (A un lado de concretox)
Santa María Coyotepec, Oax.
",,
291,ISE,Grupo CIMA de Oaxaca S.A de C.V,Oaxaca,Santa Maria Coyotepec,,"5 de Mayo 1, CP. 71954
Santa María Coyotepec, Oax.",16.96684878680762,-96.71050094040557
292,ISE,Ambioental Reciclados y Soluciones Ambientales S.A. de C.V.,Oaxaca,Santa Maria Huatulco,Bahias de Huatulco,"Artesanos Manzana 005 Lote 019 Sector V. la Crucecita, Bahias de Huatulco
Santa María Huatulco, Oax.",,
293,ISE,Ambioental Reciclados y Soluciones Ambientales S.A. de C.V.,Oaxaca,Santa Maria Huatulco,Bahias de Huatulco,"Calle El Faisan, Col. El Faisan, Bahias de Huatulco
Santa María Huatulco, Oax.",,
294,ISE,El Planeta,Oaxaca,Santa Maria Huatulco,Bahias de Huatulco,"Calle Ebanista 119, Sector V zona de Talleres, Bahias de Huatulco
Santa María Huatulco, Oax.",,
295,ISE,El Chorris,Oaxaca,Santiago Pinotepa Nacional,,"Carretera Pinotepa-Puerto Escondido km 2
Santiago Pinotepa Nacional, Oax.",16.328917905030583,-98.02629268545502
296,ISE,Juan Sosa,Oaxaca,Tlacolula,Totolapam,"San José de Gracia, San Pedro Totolapan
Tlacolula, Oax.",,
297,ISE,Recicladora Santa Maria,Oaxaca,Tlacolula de Matamoros,San Juan Teitipac ,"Entre calle Galeana y Salinas, San Juan Teitipac
Tlacolula de Matamoros, Oax.",16.927777995650764,-96.60158476204882
298,ISE,Comercializadora de Chatarra,Oaxaca,Villa de Zaachila,Villa de Zaachila,"Principal s/n, 24 de Julio, CP. 71250
Villa de Zaachila, Oax.",16.926811712556663,-96.6925755373988
299,Aurora,Depto. Reg. Abastecimiento de Hidrocarburos C.F.E.,Oaxaca,Salina Cruz,Barrio Espinal,"Tuxpan 23, Colonia Barrio Espinal, Salina Cruz, C.P. 70760, Oaxaca",,
300,Aurora,Centro de Salud San Cristóbal Jalapa del Marqués,Oaxaca,Santa María Jalapa del Marqués,San Cristobal,"Av. Principal s/n, San Cristobal, Sta. María Jalapa del Márques, C.P. 70710, Oaxaca",,
301,Aurora,LUZAMI SA DE CV HOTEL MISION OAXACA,Oaxaca,Oaxaca de Juárez,San Felipe del Agua,"Avenida Jalisco 15 Col. San Felipe del Agua Oaxaca de Juárez  C.P. 68020, Oaxaca",,
302,Aurora,PARROQUIA DE LA INMACULADA CONCEPCIÓN ,Oaxaca,Santa María Huatulco ,Centro,Avenida Morelos sin número esquina Josefa Ortiz de Domínguez sin número Col. Centro. Santa María Huautulco  ,,
303,Aurora,KINTI SOLUCIONES SOSTENIBLES A.C.,Oaxaca,Santa María Tonameca,San Agustinillo ,"carretera 175 región marítima sin número Col. San Agustinillo, Santa María Tonameca  ",,
304,Aurora,INSTITUTO DE LA JUVENTUD HUATULCO,Oaxaca,Santa María Huatulco ,,Unidad deportiva Galeana esquina gradera sin número. Col.Centro Santa María Huatulco CP 70980 Santa María Huatulco,,
305,Aurora,Abts Merlin,Oaxaca,Santa María Colotepec,Marinero,Calle del Morrol Col. Marinero CP 71980 Santa María Colotepec en medio de playa zicatela,15.85565405,-97.05702652
306,Aurora,Videojuegos mi tiendita ,Oaxaca,Santa María Colotepec,Marinero,Carretera Costera Col. Marinero CP 709634  Santa María Colotepec antes de entrar a playa zicatela,15.86047255,-97.05886066
307,Aurora,abarrotes Jacqueline,Oaxaca,Santa María Colotepec,Zicatela,del morro entrada playa zicatela 275 Col. Zicatela,15.8590257,-97.05912526
308,Aurora,Super S5,Oaxaca,Santa María Colotepec,Centro,Avenida Pérez Gasca Puerto Escondido Centro entrada adoquin junto al semaforo,15.86188424,-97.06082939
309,Aurora,Abarrotes Griselda ,Oaxaca,Santa María Colotepec,Barra de Navidad,Calle Colotepec Col. Barra de Navidad CP71980 Santa María Colotepecen el arco de la entrada de colotepec,15.82523566,-97.01956093
310,Aurora,Minisuper El Paso ,Oaxaca,Santa María Colotepec,Santa María Colotepec,Carretera Costera Col. El Palmar Tomatal CP 70934 Santa María Colotepec  frente a entrada colonia san juanito,15.78931124,-96.91820025
311,Aurora,Cumar algo más que ahorrar ,Oaxaca,Santa María Colotepec,Santa María Colotepec,Avenida Independencia Col. Santa María Colotepec CP 7980 Santa María Colotepec frente a entrada colonia san juanito,15.89760625,-96.94147775
312,Aurora,Mini superaragón,Oaxaca,Santa María Colotepec,Santa Elena Tonameca,Conocido sin número Col. Santa Elena Tonameca CP 70946 junto a puente peatonal,15.75611345,-96.82102312
313,Aurora,Abts el Crucero ,Oaxaca,Santa María Colotepec,Sector Juárez,Carrereta Costera Col. Sector Juárez CP 71980 Santa María Colotepec Cerca de chedraui,15.86184516,-97.06748664
314,Aurora,Misc Alfec ,Oaxaca,San Pedro Mixtepec Dtto-22,Libertad,Del Carmen Col. Libertad  CP 71980 San Pedro Mixtepec -Distrito 22 a 2 cuadras despues del jardin de niños de la colonia,15.87086925,-97.05760759
315,Aurora,Abats Eva Luz,Oaxaca,San Gabriel Mixtepec,Barrio de la Cruz ,20 de Noviembre Col. Barrio de la Cruz CP 71970 San Gabriel Mixtepec a 2 cuadras de la carretera que va a oaxaca,16.09553,-97.082598333333
316,Aurora,7+1 mini super,Oaxaca,Santa María Colotepec,Brisas de Zicatela,Carr. Costera Local #3. Col. Brisas de Zicatela CP 70934,15.84204465,-97.04360962
317,Aurora,Vero ,Oaxaca,San Pedro Mixtepec Dtto-22,Santa Cruz,Calle Oaxaca Col Santa Cruz CP 71990 San Pedro Mixtepec dt 22 antes de glorieta principal despues de abts Nay,15.982732,-97.07793653
318,Aurora,Farmacia del centro,Oaxaca,San Pedro Mixtepec Dtto-22,Centro,Vicente Guerrero Col. Centro cp 71990 San Pedro Mixtepec dto 22 frente agencia municipal,15.98229365,-97.08391652
319,Aurora,Abarrotes del sur ,Oaxaca,Santos Reyes Nopala ,Barrio de Jesús,Hidalgo 16 Col. Barrio de Jesús CP 7196 Santo Reyes Nopala  a un ocstado de la agencia,16.104961666667,-97.144566666667
320,Aurora,Abts San Juan de los Lagos ,Oaxaca,San Pedro Mixtepec Dtto-22,Bajos de Chila,Calle aV 16 Sept Sn Col. Bajos de Chila junto abts juanita entrada de la poblacion,15.916603333333,-97.121111666667
321,Aurora,abarrotes Ari,Oaxaca, Santa María Tonameca ,San Francisco Cozoa,Avenida Reforma Col. San Francisco Cozoa CP 70944  entrada cozoaltepec parada de taxis,15.81454333,-96.72558833
322,Aurora,abarrotes y vinos rockaway ,Oaxaca,Santa María Colotepec,Brisas de Zicatela,AVENIDA AV ALEJANDRO CARDENAS Col. Brisas de Zicatela CP 70934 junto a six de playa punta zicatela,15.8337609,-97.04476969
323,Aurora,Abarrotes los mangales,Oaxaca,San Pedro Mixtepec Dtto-22,Benito Juárez ,Avenida Ignacio Zaragoza Col. Benito Juárez CP 71980 San Pedro Mixtepec junto a tienda superprecio,15.87638117,-97.07121432
324,Aurora,Abarrotes Rubi,Oaxaca,San Pedro Mixtepec Dtto-22,Aeropuerto ,Carretera a Oaxaca 101 Col. N Aeropuerto CP 71985 -San Pedro Mixtepec,15.88137723,-97.07939662
325,Aurora,Abts y papeleria Yami-Gael,Oaxaca,San Pedro Mixtepec Dtto-22,Benito Juárez,Avenida Cuauhtémoc Col. Benito Juárez CP71980 San Pedro Mixtepec  cerca de la terminal de segunda a un ocstado de la carretera,15.87448923,-97.07468761
326,Aurora,abarrotes Luisito,Oaxaca,San Pedro Mixtepec Dtto-22,Puerto Escondido ,calle 8 norte  Col. Puerto Escondido centro CP 71980 frente a mercado municipal de puerto escondido,15.869526666667,-97.073723333333
327,Aurora,Abarrotes dona santa,Oaxaca,San Pedro Mixtepec Dtto-22,Aeropuerto ,Carretera a Oaxaca Col. Aeropuerto CP 71980 San Pero Mixtepec frente a tienda super precios antes de la gasolinera,15.88440411,-97.07918108
328,Aurora,Abarrotes Yadi ,Oaxaca,San Pedro Mixtepec Dtto-22,Sector Reforma,calle 8A norte Col. Sector Reforma D CP 71980 a un costado de muebleria Junior,15.870735,-97.069288333333
329,Aurora,Depocito alegria,Oaxaca,San Pedro Mixtepec Dtto-22,Lázaro Cárdenas,carretera costera junto a hotel DC Lázaro Cárdenas CP 70839 despues del mercado zicatela,15.84971325,-97.04989135
330,Aurora,Abts Anita,Oaxaca,San Pedro Mixtepec Dtto-22,Marinero,Camino a Malucano Col. Marinero CP 71980 delante de la agencia,15.86182452,-97.05454767
331,Aurora,Autoservicio el fortin ,Oaxaca,San Pedro Mixtepec Dtto-22,Sector Reforma,calle poniente sin número Col. N928 Sector Reforma CP71984 a un costado de la carretera costera cerca de telmex,15.86209885,-97.06911046
332,Aurora,Abts. Martínez,Oaxaca,San Pedro Mixtepec Dtto-22,San Andrés Copala ,principal Col. San Andrés Copala CP 71990 cerca de abts copala y cerca d ela agencia,15.99986,-97.14423
333,Aurora,Abarrotes Junior´s,Oaxaca,San Pedro Mixtepec Dtto-22,Centro ,Cale dos norte # 203 Col. Centro CP 71980 junto a gasolinera,15.86369185,-97.07169941
334,Aurora,La tiendita de Raciel,Oaxaca,San Pedro Mixtepec Dtto-22,Fraccionamiento las Palmas ,Cocoteros 138  Col. Fraccionamiento las Palmas CP 71980 ,15.87004448,-97.08430409
335,Aurora,Misc la pasadita,Oaxaca,San Pedro Mixtepec Dtto-22,San Miguel,Ignacio Zaragoza Col. San Miguel CP 71980 junto a campo de futbol,15.88487363,-97.06591487
336,Aurora,Abarrotes Diana,Oaxaca,San Pedro Mixtepec Dtto-22,Bajos de Chila,calle morelos Col. Bajos de Chila CP 70839 frente a preparatoria,15.91931969,-97.12433726
337,Aurora,Abarrotes Puerto Angelito,Oaxaca,San Pedro Mixtepec Dtto-22,Sector Hidalgo ,4A PONIENTE Col. Sector Hidalgo CP 71980 a un costado del parque central y del  la iglesia del pueblo,15.862438333333,-97.072663333333
338,Aurora,San Juditas ,Oaxaca,San Pedro Mixtepec Dtto-22,Agua Marina ,calle agua marina  Col. Agua Marina CP 71980 a un costado de deposito Isamar,15.87065377,-97.07777892
339,Aurora,Vinateria el Pelicano ,Oaxaca,San Pedro Mixtepec Dtto-22,Sector Libertad ,Avenida Alfonso Pérez Gasaga   519 Col. Sector Libertad CP 71980,15.860591666667,-97.065291666667
340,Aurora,Refresquería Esther ,Oaxaca,Salina Cruz,Mazatan,"Carretera Costera sin número Col. Mazatan CP 7060 a la salida morro mazatán , frente al sitio de psajeros ",-95.383029,16.09990805
341,Aurora,Lupita,Oaxaca,Salina Cruz,Morro de Mazatan,"Calle Carretera Costera sin número  Col. Morro Mazatán CP 70760 , a la salida Morro Mazatán junto al sitio de pasajeros",-95.38249554,16.09968784
342,Aurora,Miscelanea Garcia,Oaxaca, Santa María Colotepec,Lomas del Puerto ,Calle en las Cruces Col. Lomas el Puerto CP 70934 junto a cancha,15.86508055,-97.05680609
343,Aurora,Abarrotes Franco,Oaxaca,San Pedro Mixtepec Dtto-22,Puente San José ,carretera a Oaxaca  Puente San José Col. Puente San José CP 71980 junto al puente llamado san jose esta en una curva,15.91963581,-97.0824641
344,Aurora,Velmar,Oaxaca,Santa María Huatulco ,otra,Calle blvd Santa Cruz Col. Otra CO 70989 Santa María Huatulco ,-96.13095582,15.7540568
345,Aurora,Esperanza,Oaxaca,Santa María Huatulco ,Santa Cruz Sector A ,Calle Mitla Col. Santa Cruz Sector A CP 70989 Santa María Huatulco ,-96.13213945,15.75491947
346,Aurora,Super Solaris ,Oaxaca,Santa María Huatulco,Tangoluda,Blvd. Benito Juárez Col. Tangoluda CP 70989 Bahía de Tangoluda ,-96.09630167,15.77481063
347,Aurora,Restaurante Bar el Huayacan ,Oaxaca,Santa María Huatulco,Sector ,Monte Albán Playa Santa Cruz sin número Col. Sector CP 70989 Santa María Huatulco,-96.13209261,15.75310929
348,Aurora,3 hermanos,Oaxaca,Santa María Huatulco,Copalita ,Calle La Agencia Col. Copalita CP 70989 San Miguel del Puerto frente al parque de la agencia municipal cerca rio copalita,-96.0629899,15.81850603
349,Aurora,Miscelánea Flor,Oaxaca,Santa María Huatulco,Laguna Chacahua ,Laguna Chacahua manzana 5 lote 13  MX 5 sector U Col. Laguna Chacahua Mxa 5 Sector U CP 70989,-96.14019776,15.77868607
350,Aurora,Mini Super Palmar,Oaxaca,Santa María Tonameca,Centro ,Calle Centro 1 Col. Calle Centro CP 70949  cerca capilla san Isidro junto modelorama San Isidro ,-96.60986017,15.72074302
351,Aurora,Mini Abarrotes El Ranchito,Oaxaca,Santa María Tonameca,Macahuite , Carretara Pto Escondido Col  Macahuite CP 70946 Santa María Tonameca,-96.68464059,15.73055937
352,Aurora,Miscelanea super Aragón ,Oaxaca,Santa María Huatulco ,Macahuite ,Carrertera Federal a Pto Escodido Col Macahuite CP 70946 Santa María Huatulco ,-96.68459519,15.73064105
353,Aurora,Abarrotes Xandan,Oaxaca,Santa María HuatulcO,Bahía de conejo ,Calle bahía conejo manzana 1 lote 5  col. Calle Bahía Conejo CP 70987 junto a comerciales junto taller colorado ,-96.14194943,15.77281374
354,Aurora,Miscelanea la chinita ,Oaxaca,Santa María Tonameca,Llano Grande Tonameca,"Llano Grande Crucero Tonameca Col. Llano Grande Tonameca CP 70900 Santa María Tonameca, junto al puente peatonal de tonameca carretera federal 200 ",-96.53841636,15.7297906
355,Aurora,Abts Jimal ,Oaxaca,San Pedro Pochutla,San José Chacalapa,"La Principal Col. San José Chacalapa CP 70904 San Pedro Pochutla  cerca del parque central de Chacalapa , cerca del mercado de Chacalapa",-96.464723333333,15.829695
356,Aurora,Abts Adir,Oaxaca,San Pedro Pochutla,,Avenida Lázaro Cárdenas junto a barrotes roga casi enfrente bancomer,-96.467265,15.748538333333
357,Aurora,Abts Doña Eva,Oaxaca,,,Laguna Tamiahua manzana 2 sector y junto al canal pluvial ,-96.13965317,15.78016158
358,Aurora,Abts Cony,Oaxaca,San Pedro Pochutla,,"Calle Joverio CALLE   JOVERITO, ATRÁS DEL HOSPITAL MATERNO INFANTIL POCHUTLA",-96.46634015,15.74089134
359,Aurora,Minisuper La Palapa ,Oaxaca,Santa María Huatulco,Sector ,Sector H Col Sector h3 CP7097 Santa María Huatulco,-96.14954208,15.76657327
360,Aurora,Hernandezz,Oaxaca,Santa María Huatulco,Sector,Calle bugambilia Col. Sector CP 70987 ,-96.13902301,15.76747132
361,Aurora,Abts Fuente de Vida,Oaxaca,Santa María Huatulco,,Bahía San Agustín MX 16 Lote,-96.13942087,15.77446472
362,Aurora,Romza,Oaxaca,Santa María Huatulco,,"Avenida Benito Juárez SN  Camino a paso ancho, antes de la iglesia crisitiana paso ancho ",-96.31663604,15.84260337
363,Aurora,Abarrotes Jeyco,Oaxaca,Santa María Huatulco,Tachal Blanco ,Calle Las Plamas Col. Tachal Blanco CP 70980 Santa María Huatulco cerca de abarrotes techal,-96.31234114,15.82881563
364,Aurora,Miscelanea Yuli 2,Oaxaca,Santa María Huatulco,Centro ,Calle Av. Benito Juárez Col. Centro CP 70980 Santa María Huatulco antes de la cebtis de Santa María Huatulco,-96.32107166,15.8277
365,Aurora,Abarrotes La esquina ,Oaxaca,Santa María Huatulco,Centro ,Benito Juárez 301 Col. Centro CP 70890 Santa María Huatulco  cerca del oxxo de Santa María cerca del neto Santa María ,-96.32074157,15.83314408
366,Aurora,Miscelanea Manuela ,Oaxaca,Santa María Huatulco,Piedra de Moro ,Carretera San Miguel del Puerto Col. Piedra de Moro CP 709890 Santa María Huatulco  al lado de la cancha de basquet ball frente a la capilla de piedra de moros,-96.23071007,15.79898969
367,Aurora,Mini Super José ,Oaxaca,San Pedro Pochutla,San José Chacalapa,Josefa Ortiz de Domínguez Col. San José Chacalapa CP 70900  cerca de la cancha de basquet ball frente a la capilla de piedra de moros,-96.464823333333,15.829943333333
368,Aurora,Abarrotes EL chinito ,Oaxaca,San Pedro Pochutla,Lomas del Carmen,Calle Lázaro Cárdenas 1 Col. Lomas del Carmen CP 70900 San Pedro Pochutla cerca del oxxo loma cruz cerca de la gasolinera loma cruz,-96.464583333333,15.756141666667
369,Aurora,Miscelánea Domy,Oaxaca,Santa María Tonameca,,Camino al Río San Isidro del Palmar ,-96.60614171,15.7265552
370,Aurora,Comercial el Angel,Oaxaca,San Pedro Pochuta,Centro,Calle José Vasconcelos col. Centro CP 70902 Puerto Ángel San Pedro Pochuta,-96.49043083,15.66586037
371,Aurora,Miscelanea Flory,Oaxaca,San Pedro Pochutla,El Panteón,Del Panteón 248  col. El Panteón CP 70902 Puerto Ángel San Pedro Pochutla  cerca de restaurant Cordelia,-96.49628073,15.66468759
372,Aurora,Abarrotes Lety,Oaxaca,San Pedro Pochutla,Zipolite ,Principal Col. Zipolite CP 70902 San Pedro Pochutla antes de piña palmera,-96.51539683,15.66460909
373,Aurora,Misc Pily,Oaxaca,Santa María Tonamec,San Agustinillo ,Avenida Principal Col San aGustinillo CP 70902 Santa María Tonameca junto agencia municipal de mazunte,-96.542483,15.66602692
374,Aurora,Modulo ventanilla,Oaxaca, Santa María Tonameca,Ventanilla,Avenida Principal Col. Ventanilla CP 70902 Santa María Tonameca,-96.57566166,15.66904
375,Aurora,Abarrotes frutas y verduras,Oaxaca, San Pedro Pochutla,Laguna Seca,Calle Laguna seca Col. Laguna seca CP 70900 San Pedro Pochutla entronque con colonia de los maestros,-96.46611452,15.73741205
376,Aurora,Abarrotes Edgar,Oaxaca,San Pedro Pochutla,Emiliano Zapata,Calzada Alto de Juárez Col. Emiliano Zapata CP 70900 San Pedro Pochutla,-96.46813631,15.73631111
377,Aurora,Sirenita,Oaxaca,San Pedro Pochutla ,Sección cuarta,Calle Hidalgo Col. Sección cuarta CP 70900 San Pedro Pochutla calle progreso y calle trujano cerca de la cava ex discoteque,-96.46477268,15.74458854
378,Aurora,Ultramarinos del Manantial,Oaxaca,Santa María Huatulco,Centro,"Av. Gardenias 402 Col Centro CENTRO, SANTA CRUZ HUATULCO",-96.13869131,15.76373958
379,Aurora,Misc Las Flores,Oaxaca,San Pedro Pochutla,,Avenida Constitución  1 IV SECCION cp70900 SAN PEDRO POCHUTLA,-96.46563844,15.7433482
380,Aurora,La Ceiba II,Oaxaca,Santa María Huatulco,," CALLE GARDENIA, ANTES DE LA YAHAMA HUATULCO",-96.13959384,15.7669799
381,Aurora,Misc las joyas,Oaxaca,Santa María Huatulco,La Crucecita,Laguna grande 1 B manzana 30 . Laguna grande mza 23 lote 14lote 14 Col. La crucecita bahías CP 70900 Santa María Huatulco frente a la caseta de vigilancia u2,-96.1393304,15.77597006
382,Aurora,Caseta San Judas ,Oaxaca,Santa María Huatulco ,,"carretera federal Costera Huautulco Salina Cruz, entrada Principal a Copalita",-96.06307059,15.82013208
383,Aurora,Los comerciales,Oaxaca,Santa María Huatulco,Sector,"Blv Bahías manzana 1 lote 2 Col Sector CP 70900 Santa María Huatulco junto a paquetería 3 guerras, junto a taller el colorado  ",-96.14209131,15.77301984
384,Aurora,Mini super el gordo,Oaxaca,Santa María Huatulco,La Crucecita,Laguna Chacahua Mxa 11 Sector Col La Crucecita Bahías CP 70900 Santa María Huatulco ,-96.14068867,15.78010939
385,Aurora,abarrotes Juquilita,Oaxaca,Santa Cruz Xoxocotlán ,Reforma Agraria,Felipe Carrillo Puerto Col. Reforma Agraria CP 68130 Xocotlán,-96.7230054,17.04390247
386,Aurora,Francisca López Poblano,Oaxaca,Oaxaca de Juárez,Arenal,Linderos Col. El Arenal CP 68120 ,-96.7098082,17.04361009
387,Aurora,Miscelánea Nayeli ,Oaxaca,Oaxaca de Juárez,Arenal,Calle Linderos Col.  El Arenal CP 68126,-96.7114154,17.043991318
388,Aurora,Yolanda Martínez ,Oaxaca,Oaxaca de Juárez,Unión,"Calle Libertad Col. Unión CP 68030 Oax, Oax",-96.7392009,17.068465067
389,Aurora,Miscelánea Rocío ,Oaxaca,Oaxaca de Juárez,Vicente Suárez,Segunda de Vicente Suárez Col. Vicente Suárez ,-96.7419811,17.071492743
390,Aurora,Tendajón La Fortaleza ,Oaxaca,Oaxaca de Juárez,Centro,Constitucion Col. Oaxaca Centro CP 68000,-96.721713333333,17.065341666667
391,Aurora,Mary Sol,Oaxaca,Oaxaca de Juárez,Centro,Calle Independencia Col. Centro CP 68000,-96.724281666667,17.061903333333
392,Aurora,Minisuper Fany ,Oaxaca,,Centro,Calle Porfirio Díaz 707 A Centro CP 6800,,
393,Aurora,Mini súper OK Llano,Oaxaca,Oaxaca de Juárez,Oaxaca,Calle Humbolt Col. Oaxaca CP 68000,-96.72032,17.067935
394,Aurora,Teresa de Jesús,Oaxaca,Oaxaca de Juárez,Centro,Bustamante esquina con rayón 113 Col. Centro ,-96.7265923,17.057216346
395,Aurora,Miscelánea Rayón y González,Oaxaca,Oaxaca de Juárez,Centro,Rayon Col. Centro CP 68000,-96.718878,17.056797503
396,Aurora,Miscelánea Don Pilo,Oaxaca,Oaxaca de Juárez,Infonavit F Magón ,Av Central Mz 71 Col.  Infonavit F Magon CP 68020,-96.6969937,17.083936431
397,Aurora,Miscelánea Miguelito,Oaxaca,Oaxaca de Juárez,Centro ,Porfirio Diaz Col. Centro CP 68000,-96.7247484,17.071187401
398,Aurora,Miscelánea Farol de Natalia ,Oaxaca,Oaxaca de Juárez,Centro,Gurrion Col. Centro CP 68000,-96.7234772,17.0653696
399,Aurora,La cieneguita 2 ,Oaxaca,Oaxaca de Juárez,La cieniguita,calle la cienega 11 Col. La cieniguita CP 68127 ,,
400,Aurora,Miscelánea Yautepec,Oaxaca,Oaxaca de Juárez,Lomas de Crestón ,Calle C Arcoíris Col. Lomas de Crestón CP 68050 Oaxaca ,-96.7208355,17.087375017
401,Aurora,Miscelánea Rocío ,Oaxaca,Oaxaca de Juárez,Fraccionamiento Lomas del Crestón ,Rocío 308 Col. Fraccionamiento Lomas del Crestón ,-96.7204231,17.086310883
402,Aurora,Dulcería el Andador,Oaxaca,Oaxaca de Juárez,Centro ,Macedonio Alcala Col. Centro CP 68000,-96.7238512,17.066109364
403,Aurora,Los Reyes,Oaxaca,Oaxaca de Juárez,Centro ,Calle Morelos Col. Centro CP 6800 Oax ,-96.7159678,17.061240876
404,Aurora,Chiqui Súper,Oaxaca,Oaxaca de Juárez,Centro,Garcia Virgil Col. Centro CP 68000 Oax,-96.7244788,17.067708341
405,Aurora,Miscelánea Doña Ofe,Oaxaca,Oaxaca de Juárez,Ocotlán de Morelos,Calle Benito Juarez 111 Col. Ocotlan De Morelos ,-96.675916666667,16.789918333333
406,Aurora,Mariscal ,Oaxaca,Oaxaca de Juárez,Libertad,Cuauhtémoc Col. Libertad CP 68090 Oax ,-96.73481,17.062224105
407,Aurora,Miscelánea Memito ,Oaxaca,Ocotlán de Morelos,Centro ,Carretera  Angel  Km 32.50 Col. Centro ,-96.67034,16.78383
408,Aurora,Miscelánea Lupita ,Oaxaca,Ocotlán de Morelos,Centro ,Independencia Col. El Centro ,-96.681101666667,16.78598
409,Aurora,Cremería Juquilita 2,Oaxaca,Ocotlán de Morelos,San Antonino Castillo Velasco,Gregorio Gomez Col.San Antonino Castillo Velasco,-96.673818333333,16.790976666667
410,Aurora,Abarrotes CESMA ,Oaxaca,San Antonino Castillo Velasco,San Antonino Castillo Velasco,Calle  Aldama Col. San Antonino Castillo Velasco,-96.68438,16.8044875
411,Aurora,Depósito Tavo,Oaxaca,Santa Rosa, San Juan Chilateca ,Carretera Puerto Angel Col. San Juan Chilateca ,-96.746436666667,17.089651666667
412,Aurora,Miscelánea Dani ,Oaxaca,Oaxaca de Juárez,Animas Trujano,Carretera a Puerto Ángel sin número Col. Animas Trujano CP 71244 ,-96.7310763,16.56925019
413,Aurora,Miscelánea Yael ,Oaxaca,San Agustín de las Juntas,San Agustín de las Juntas ,Reforma Col. San Agustín de las Juntas CP71238 ,-96.7127148,17.0139528
414,Aurora,Miriam,Oaxaca,San Agustín de las Juntas,San Agustín De Las Juntas ,Jalle Río Colorada Col. San Agustín De Las Juntas ,-96.7111259,16.993756526
415,Aurora,Olguita ,Oaxaca,Oaxaca de Juárez,Centro ,Calle Río Progreso 25A  Col. Centro ,-96.7122037,16.990659342
416,Aurora,Mis Miriam,Oaxaca,,Santa María,Calle Unión Col. Santa María CP 71254 ,,
417,Aurora,Gómez,Oaxaca,,San Bartolo Coyotepec ,Calle Río Hidalgo Col. San Bartolo Coyotepec ,,
418,Aurora,Mini Super Esquina ,Oaxaca,Santa Cruz Xoxocotlán ,Ocotlán,Calle Benito Juárez Col. Ocotlán CP 71510 ,-96.747306666667,17.00651
419,Aurora,Lumico,Oaxaca,San Antonio de la Cal ,Villa De Zaachila ,Zalle Río Leobaa Col. Villa De Zaachila ,-96.7540279,16.950939198
420,Aurora,Felix,Oaxaca,San Raymundo Jalpan ,San Raymundo Jalpan ,Jalle Río Calles Col. San Raymundo Jalpan ,-96.7605105,16.970325375
421,Aurora,Vero ,Oaxaca,Santa Cruz Xoxocotlán,San Juan Bautista,Ralle Río Juarez Col. San Juan Bautista La Raya ,-96.7276187,16.978034966
422,Aurora,ABARROTES REYES ,Oaxaca,San Juan Chilateca,San Juan Chilateca,Calle Cuauhtémoc 4 Col. San Juan Chilateca entre avenida del Carmén y calle agricultores CP 71508 ,,
423,Aurora,Miscelánea la Chiquita ,Oaxaca,Villa de Zaachila,Lomas de la Cuesta,Carretera Ocotlán 1236 Col. Lomas de la Cuesta CP 71317 ,,
424,Aurora,Bodega Aurrera OAXACA ,Oaxaca,Oaxaca de Juárez,del Maestro,"Santa Rosa, Carr. Internacional 1708, Col del Maestro, 68010 Oaxaca de Juárez, México",,
425,Aurora,OMNILIFE DE MÉXICO SA DE CV/ Huajuapan,Oaxaca,Huajuapan de León ,Tepeyac,calle 2 de abril no. 66 Col. Tepeyac Huajuapan de León CP6900 Oaxaca,,
426,Aurora,OMNILIFE DE MÉXICO SA DE CV/ Oaxaca,Oaxaca,Oaxaca de Juárez,Centr,Av. Independencia no. 1501-c Col. Centro Oaxaca de Juárez CP68000 Oaxaca ,,
427,Aurora,OMNILIFE DE MÉXICO SA DE CV/ Tuxtepec,Oaxaca,San Juan Bautista Tuxtepec ,Fraccionamineto Costa Verde ,Calle 4 esquina Avenida 5 no. 16 Col. Fraccionamiento Costa Verde,,
427,Aurora,OMNILIFE DE MÉXICO SA DE CV/ Salina Cruz ,Oaxaca,Salina Cruz,Barrio Espinal ,Av. Manuel Ávila Camacho no. 713 Col. Barrio Espinal Salina Cruz CP 70650 Oaxaca ,,